NORAD_CAT_ID,OBJECT_NAME,OBJECT_TYPE,EPOCH,MEAN_MOTION,ECCENTRICITY,INCLINATION,RA_OF_ASC_NODE,ARG_OF_PERICENTER,MEAN_ANOMALY,BSTAR,MEAN_MOTION_DOT,MEAN_MOTION_DDOT,TLE_LINE0,TLE_LINE1,TLE_LINE2,SEMIMAJOR_AXIS,PERIOD,APOGEE,PERIGEE,DECAYED
53415.0,STARLINK-4479,PAYLOAD,2023-02-05 00:38:22,15.0884732,0.0001288,53.2173,140.8883,91.5516,268.5623,0.0002762,4.111e-05,0.0,0 STARLINK-4479,1 53415U 22097AD  23036.02664957  .00004111  00000-0  27620-3 0  9998,2 53415  53.2173 140.8883 0001288  91.5516 268.5623 15.08847320 27772,6917.858,95.437,540.614,538.832,0.0
53415.0,STARLINK-4479,PAYLOAD,2023-02-05 13:21:28,15.08836338,0.0001436,53.218,138.5066,75.5181,284.597,0.00022211,3.248e-05,0.0,0 STARLINK-4479,1 53415U 22097AD  23036.55657693  .00003248  00000-0  22211-3 0  9996,2 53415  53.2180 138.5066 0001436  75.5181 284.5970 15.08836338 27851,6917.892,95.438,540.75,538.763,0.0
53415.0,STARLINK-4479,PAYLOAD,2023-02-05 16:32:13,15.08850741,0.0001151,53.2165,137.9142,99.4371,260.6751,0.00021063,3.067e-05,0.0,0 STARLINK-4479,1 53415U 22097AD  23036.68904819  .00003067  00000-0  21063-3 0  9998,2 53415  53.2165 137.9142 0001151  99.4371 260.6751 15.08850741 27870,6917.848,95.437,540.509,538.916,0.0
53415.0,STARLINK-4479,PAYLOAD,2023-02-06 11:36:51,15.0884987,0.0001277,53.218,134.3444,100.0535,260.0601,0.00014312,1.991e-05,0.0,0 STARLINK-4479,1 53415U 22097AD  23037.48392681  .00001991  00000-0  14312-3 0  9998,2 53415  53.2180 134.3444 0001277 100.0535 260.0601 15.08849870 27995,6917.85,95.437,540.599,538.832,0.0
53415.0,STARLINK-4479,PAYLOAD,2023-02-06 13:12:14,15.08856515,0.0001276,53.2168,134.0491,91.0345,269.0793,0.00022891,3.359e-05,0.0,0 STARLINK-4479,1 53415U 22097AD  23037.55016402  .00003359  00000-0  22891-3 0  9991,2 53415  53.2168 134.0491 0001276  91.0345 269.0793 15.08856515 28465,6917.83,95.437,540.578,538.812,0.0
53415.0,STARLINK-4479,PAYLOAD,2023-02-06 17:58:23,15.08873392,0.0001116,53.217,133.157,83.5746,276.5373,0.0011522,0.00018114,0.0,0 STARLINK-4479,1 53415U 22097AD  23037.74888186  .00018114  00000-0  11522-2 0  9991,2 53415  53.2170 133.1570 0001116  83.5746 276.5373 15.08873392 28032,6917.778,95.435,540.415,538.871,0.0
53415.0,STARLINK-4479,PAYLOAD,2023-02-07 06:41:28,15.08857374,8.73e-05,53.2174,130.7791,77.278,282.831,0.00061771,9.561e-05,0.0,0 STARLINK-4479,1 53415U 22097AD  23038.27880413  .00009561  00000-0  61771-3 0  9993,2 53415  53.2174 130.7791 0000873  77.2780 282.8310 15.08857374 28113,6917.827,95.436,540.296,539.088,0.0
53415.0,STARLINK-4479,PAYLOAD,2023-02-07 11:27:37,15.08874471,0.0001002,53.2169,129.8872,94.1501,265.9606,0.0022415,0.000356,0.0,0 STARLINK-4479,1 53415U 22097AD  23038.47752004  .00035600  00000-0  22415-2 0  9993,2 53415  53.2169 129.8872 0001002  94.1501 265.9606 15.08874471 28601,6917.775,95.435,540.333,538.947,0.0
53415.0,STARLINK-4479,PAYLOAD,2023-02-07 14:38:23,15.0888263,9.71e-05,53.2169,129.2919,99.953,260.1571,0.0027367,0.00043587,0.0,0 STARLINK-4479,1 53415U 22097AD  23038.60999673  .00043587  00000-0  27367-2 0  9997,2 53415  53.2169 129.2919 0000971  99.9530 260.1571 15.08882630 28161,6917.75,95.435,540.287,538.943,0.0
53415.0,STARLINK-4479,PAYLOAD,2023-02-07 17:49:09,15.08893195,0.000102,53.2168,128.6974,88.9756,271.1353,0.0025571,0.00040703,0.0,0 STARLINK-4479,1 53415U 22097AD  23038.74247263  .00040703  00000-0  25571-2 0  9995,2 53415  53.2168 128.6974 0001020  88.9756 271.1353 15.08893195 28649,6917.718,95.434,540.288,538.877,0.0
53415.0,STARLINK-4479,PAYLOAD,2023-02-08 06:32:14,15.08866033,0.0001178,53.2165,126.3184,104.1693,255.943,0.0013191,0.00020783,0.0,0 STARLINK-4479,1 53415U 22097AD  23039.27239234  .00020783  00000-0  13191-2 0  9994,2 53415  53.2165 126.3184 0001178 104.1693 255.9430 15.08866033 28264,6917.801,95.436,540.481,538.851,0.0
53415.0,STARLINK-4479,PAYLOAD,2023-02-08 11:18:23,15.08877923,0.00012,53.2164,125.4263,104.0866,256.026,0.0024273,0.00038594,0.0,0 STARLINK-4479,1 53415U 22097AD  23039.47110949  .00038594  00000-0  24273-2 0  9999,2 53415  53.2164 125.4263 0001200 104.0866 256.0260 15.08877923 28755,6917.764,95.435,540.46,538.799,0.0
53415.0,STARLINK-4479,PAYLOAD,2023-02-09 06:23:01,15.08868875,0.0001628,53.2158,121.8583,96.6403,263.4774,0.0024816,0.0003946,0.0,0 STARLINK-4479,1 53415U 22097AD  23040.26599389  .00039460  00000-0  24816-2 0  9993,2 53415  53.2158 121.8583 0001628  96.6403 263.4774 15.08868875 28411,6917.792,95.436,540.783,538.531,0.0
53415.0,STARLINK-4479,PAYLOAD,2023-02-09 11:09:11,15.08816335,0.0001239,53.216,120.9657,81.6346,278.4787,0.0018553,0.00029343,0.0,0 STARLINK-4479,1 53415U 22097AD  23040.46472088  .00029343  00000-0  18553-2 0  9991,2 53415  53.2160 120.9657 0001239  81.6346 278.4787 15.08816335 28902,6917.953,95.439,540.675,538.961,0.0
53415.0,STARLINK-4479,PAYLOAD,2023-02-09 12:44:35,15.08820522,0.0001347,53.216,120.6682,70.3813,289.7324,0.0020708,0.00032805,0.0,0 STARLINK-4479,1 53415U 22097AD  23040.53096298  .00032805  00000-0  20708-2 0  9996,2 53415  53.2160 120.6682 0001347  70.3813 289.7324 15.08820522 28456,6917.94,95.439,540.737,538.873,0.0
53415.0,STARLINK-4479,PAYLOAD,2023-02-09 22:16:54,15.0881855,0.0001366,53.2164,118.8863,78.3091,281.8054,0.0009095,0.00014208,0.0,0 STARLINK-4479,1 53415U 22097AD  23040.92841014  .00014208  00000-0  90950-3 0  9997,2 53415  53.2164 118.8863 0001366  78.3091 281.8054 15.08818550 28515,6917.946,95.439,540.756,538.866,0.0
53415.0,STARLINK-4479,PAYLOAD,2023-02-10 12:35:23,15.08840925,0.0001447,53.2157,116.2078,85.71,274.4057,0.0013933,0.00021956,0.0,0 STARLINK-4479,1 53415U 22097AD  23041.52457448  .00021956  00000-0  13933-2 0  9991,2 53415  53.2157 116.2078 0001447  85.7100 274.4057 15.08840925 29063,6917.878,95.437,540.744,538.742,0.0
53415.0,STARLINK-4479,PAYLOAD,2023-02-10 22:07:42,15.08840336,0.0001456,53.2162,114.4241,90.7866,269.3292,0.00063753,9.873e-05,0.0,0 STARLINK-4479,1 53415U 22097AD  23041.92201559  .00009873  00000-0  63753-3 0  9995,2 53415  53.2162 114.4241 0001456  90.7866 269.3292 15.08840336 28661,6917.879,95.438,540.752,538.737,0.0
53415.0,STARLINK-4479,PAYLOAD,2023-02-11 10:50:47,15.08841196,0.0001744,53.2165,112.0453,88.9044,271.2148,0.00043531,6.647e-05,0.0,0 STARLINK-4479,1 53415U 22097AD  23042.45193776  .00006647  00000-0  43531-3 0  9993,2 53415  53.2165 112.0453 0001744  88.9044 271.2148 15.08841196 29208,6917.877,95.437,540.948,538.535,0.0
53415.0,STARLINK-4479,PAYLOAD,2023-02-11 21:58:29,15.08846766,0.0001633,53.2162,109.9651,63.6197,296.4963,0.00043438,6.633e-05,0.0,0 STARLINK-4479,1 53415U 22097AD  23042.91561707  .00006633  00000-0  43438-3 0  9998,2 53415  53.2162 109.9651 0001633  63.6197 296.4963 15.08846766 28814,6917.86,95.437,540.854,538.595,0.0
53415.0,STARLINK-4479,PAYLOAD,2023-02-12 10:41:34,15.08846964,0.0001796,53.2142,107.5844,85.1037,275.016,0.00033617,5.067e-05,0.0,0 STARLINK-4479,1 53415U 22097AD  23043.44553666  .00005067  00000-0  33617-3 0  9990,2 53415  53.2142 107.5844 0001796  85.1037 275.0160 15.08846964 29354,6917.859,95.437,540.967,538.482,0.0
53415.0,STARLINK-4479,PAYLOAD,2023-02-13 04:10:49,15.08844984,0.0001723,53.216,104.3136,83.616,276.5029,0.00019902,2.881e-05,0.0,0 STARLINK-4479,1 53415U 22097AD  23044.17417882  .00002881  00000-0  19902-3 0  9992,2 53415  53.2160 104.3136 0001723  83.6160 276.5029 15.08844984 29005,6917.865,95.437,540.922,538.538,0.0
53415.0,STARLINK-4479,PAYLOAD,2023-02-13 13:43:07,15.08854499,0.000146,53.2179,102.5303,80.8028,279.3129,0.00030802,4.619e-05,0.0,0 STARLINK-4479,1 53415U 22097AD  23044.57161250  .00004619  00000-0  30802-3 0  9994,2 53415  53.2179 102.5303 0001460  80.8028 279.3129 15.08854499 29522,6917.836,95.437,540.711,538.691,0.0
53415.0,STARLINK-4479,PAYLOAD,2023-02-14 04:01:36,15.0883407,0.0001391,53.2153,99.8512,95.0851,265.03,-3.1762e-05,-7.93e-06,0.0,0 STARLINK-4479,1 53415U 22097AD  23045.16778165 -.00000793  00000-0 -31762-4 0  9997,2 53415  53.2153  99.8512 0001391  95.0851 265.0300 15.08834070 29154,6917.899,95.438,540.726,538.801,0.0
53415.0,STARLINK-4479,PAYLOAD,2023-02-14 10:23:08,15.08841789,0.0001503,53.2164,98.6657,89.6074,270.5091,0.00013958,1.934e-05,0.0,0 STARLINK-4479,1 53415U 22097AD  23045.43273862  .00001934  00000-0  13958-3 0  9993,2 53415  53.2164  98.6657 0001503  89.6074 270.5091 15.08841789 29191,6917.875,95.437,540.78,538.7,0.0
53415.0,STARLINK-4479,PAYLOAD,2023-02-14 13:33:54,15.08843066,0.0001676,53.2177,98.0691,91.0578,269.0606,0.00017595,2.514e-05,0.0,0 STARLINK-4479,1 53415U 22097AD  23045.56521771  .00002514  00000-0  17595-3 0  9998,2 53415  53.2177  98.0691 0001676  91.0578 269.0606 15.08843066 29672,6917.871,95.437,540.895,538.577,0.0
53415.0,STARLINK-4479,PAYLOAD,2023-02-15 13:24:41,15.08883169,0.0001258,53.2173,93.6087,102.7425,257.3708,0.0019351,0.0003068,0.0,0 STARLINK-4479,1 53415U 22097AD  23046.55881184  .00030680  00000-0  19351-2 0  9991,2 53415  53.2173  93.6087 0001258 102.7425 257.3708 15.08883169 29362,6917.748,95.435,540.484,538.743,0.0
53415.0,STARLINK-4479,PAYLOAD,2023-02-15 19:46:14,15.08851071,0.0001514,53.2174,92.4202,85.7077,274.4088,0.0003916,5.952e-05,0.0,0 STARLINK-4479,1 53415U 22097AD  23046.82377641  .00005952  00000-0  39160-3 0  9994,2 53415  53.2174  92.4202 0001514  85.7077 274.4088 15.08851071 29400,6917.847,95.437,540.759,538.664,0.0
53415.0,STARLINK-4479,PAYLOAD,2023-02-16 13:15:28,15.08866679,0.0001247,53.2173,89.1495,75.0704,285.0426,0.0010349,0.00016233,0.0,0 STARLINK-4479,1 53415U 22097AD  23047.55241032  .00016233  00000-0  10349-2 0  9990,2 53415  53.2173  89.1495 0001247  75.0704 285.0426 15.08866679 29974,6917.799,95.436,540.526,538.801,0.0
53415.0,STARLINK-4479,PAYLOAD,2023-02-16 19:37:00,15.08831947,9.72e-05,53.2168,87.9602,257.8742,102.2141,-0.00026361,-4.48e-05,0.0,0 STARLINK-4479,1 53415U 22097AD  23047.81737022 -.00004480  00000-0 -26361-3 0  9993,2 53415  53.2168  87.9602 0000972 257.8742 102.2141 15.08831947 30011,6917.905,95.438,540.442,539.098,0.0
